NORAD_CAT_ID,OBJECT_NAME,OBJECT_TYPE,EPOCH,MEAN_MOTION,ECCENTRICITY,INCLINATION,RA_OF_ASC_NODE,ARG_OF_PERICENTER,MEAN_ANOMALY,BSTAR,MEAN_MOTION_DOT,MEAN_MOTION_DDOT,TLE_LINE0,TLE_LINE1,TLE_LINE2,SEMIMAJOR_AXIS,PERIOD,APOGEE,PERIGEE,DECAYED
55412.0,STARLINK-5033,PAYLOAD,2024-01-23 15:53:59,14.98333087,0.0002628,69.9979,240.979,260.0846,100.0017,-1.0242e-05,-2.15e-06,0.0,0 STARLINK-5033,1 55412U 23014X   24023.66249568 -.00000215  00000-0 -10242-4 0  9997,2 55412  69.9979 240.9790 0002628 260.0846 100.0017 14.98333087 54388,6950.183,96.107,573.875,570.222,0.0
55412.0,STARLINK-5033,PAYLOAD,2024-01-23 22:18:31,14.98333182,0.0002608,69.9981,240.3058,259.579,100.5075,-4.8229e-06,-1.51e-06,0.0,0 STARLINK-5033,1 55412U 23014X   24023.92953483 -.00000151  00000-0 -48229-5 0  9990,2 55412  69.9981 240.3058 0002608 259.5790 100.5075 14.98333182 55365,6950.183,96.107,573.861,570.235,0.0
55412.0,STARLINK-5033,PAYLOAD,2024-01-23 23:54:39,14.98333426,0.0002605,69.9981,240.1375,259.4593,100.6273,-1.8535e-06,-1.15e-06,0.0,0 STARLINK-5033,1 55412U 23014X   24023.99629444 -.00000115  00000-0 -18535-5 0  9991,2 55412  69.9981 240.1375 0002605 259.4593 100.6273 14.98333426 55375,6950.182,96.107,573.858,570.237,0.0
55412.0,STARLINK-5033,PAYLOAD,2024-01-24 19:08:16,14.98328543,0.0002617,69.9982,238.1172,260.1872,99.8992,1.6177e-05,1e-06,0.0,0 STARLINK-5033,1 55412U 23014X   24024.79741634  .00000100  00000-0  16177-4 0  9997,2 55412  69.9982 238.1172 0002617 260.1872  99.8992 14.98328543 54550,6950.197,96.107,573.881,570.244,0.0
55412.0,STARLINK-5033,PAYLOAD,2024-01-24 22:20:33,14.98327444,0.000265,69.9982,237.7808,262.1783,97.9076,4.1234e-07,-8.8e-07,0.0,0 STARLINK-5033,1 55412U 23014X   24024.93093767 -.00000088  00000-0  41234-6 0  9990,2 55412  69.9982 237.7808 0002650 262.1783  97.9076 14.98327444 55519,6950.201,96.107,573.908,570.224,0.0
55412.0,STARLINK-5033,PAYLOAD,2024-01-25 14:21:53,14.9833054,0.0002611,69.9986,236.0981,261.1991,98.8872,-2.6126e-05,-4.05e-06,0.0,0 STARLINK-5033,1 55412U 23014X   24025.59853667 -.00000405  00000-0 -26126-4 0  9991,2 55412  69.9986 236.0981 0002611 261.1991  98.8872 14.98330540 55610,6950.191,96.107,573.871,570.242,0.0
55412.0,STARLINK-5033,PAYLOAD,2024-01-25 19:10:17,14.98331342,0.0002577,69.9989,235.5928,262.0875,97.9992,-1.1401e-05,-2.29e-06,0.0,0 STARLINK-5033,1 55412U 23014X   24025.79881567 -.00000229  00000-0 -11401-4 0  9997,2 55412  69.9989 235.5928 0002577 262.0875  97.9992 14.98331342 54703,6950.189,96.107,573.845,570.263,0.0
55412.0,STARLINK-5033,PAYLOAD,2024-01-25 22:22:33,14.98329551,0.0002638,69.9989,235.2563,265.469,94.6167,-3.3855e-05,-4.97e-06,0.0,0 STARLINK-5033,1 55412U 23014X   24025.93233757 -.00000497  00000-0 -33855-4 0  9999,2 55412  69.9989 235.2563 0002638 265.4690  94.6167 14.98329551 55668,6950.194,96.107,573.893,570.226,0.0
55412.0,STARLINK-5033,PAYLOAD,2024-01-26 14:23:54,14.98330385,0.0002699,69.9991,233.5728,269.2629,90.822,2.0448e-05,1.51e-06,0.0,0 STARLINK-5033,1 55412U 23014X   24026.59993534  .00000151  00000-0  20448-4 0  9997,2 55412  69.9991 233.5728 0002699 269.2629  90.8220 14.98330385 55762,6950.192,96.107,573.933,570.181,0.0
55412.0,STARLINK-5033,PAYLOAD,2024-01-26 19:12:18,14.98330614,0.0002698,69.9992,233.0677,269.4284,90.6566,2.2141e-05,1.71e-06,0.0,0 STARLINK-5033,1 55412U 23014X   24026.80021504  .00000171  00000-0  22141-4 0  9994,2 55412  69.9992 233.0677 0002698 269.4284  90.6566 14.98330614 54854,6950.191,96.107,573.931,570.181,0.0
55412.0,STARLINK-5033,PAYLOAD,2024-01-27 14:25:55,14.98330528,0.0002722,69.9993,231.0481,270.5242,89.5605,1.9328e-05,1.38e-06,0.0,0 STARLINK-5033,1 55412U 23014X   24027.60133462  .00000138  00000-0  19328-4 0  9996,2 55412  69.9993 231.0481 0002722 270.5242  89.5605 14.98330528 55914,6950.191,96.107,573.948,570.164,0.0
55412.0,STARLINK-5033,PAYLOAD,2024-01-27 20:50:29,14.98306965,0.0004034,69.9998,230.3792,288.0517,72.0202,-0.00024006,-2.955e-05,0.0,0 STARLINK-5033,1 55412U 23014X   24027.86839790 -.00002955  00000-0 -24006-3 0  9990,2 55412  69.9998 230.3792 0004034 288.0517  72.0202 14.98306965 55955,6950.264,96.108,574.933,569.325,0.0
55412.0,STARLINK-5033,PAYLOAD,2024-01-27 22:26:40,14.98278317,0.0002824,69.9993,230.2069,264.6711,95.4126,-0.00054409,-6.57e-05,0.0,0 STARLINK-5033,1 55412U 23014X   24027.93518598 -.00006570  00000-0 -54409-3 0  9995,2 55412  69.9993 230.2069 0002824 264.6711  95.4126 14.98278317 55028,6950.353,96.11,574.181,570.255,0.0
55412.0,STARLINK-5033,PAYLOAD,2024-01-28 14:27:58,14.98317218,0.0002781,69.9991,228.5242,246.1232,113.9636,-0.00012002,-1.524e-05,0.0,0 STARLINK-5033,1 55412U 23014X   24028.60275835 -.00001524  00000-0 -12002-3 0  9991,2 55412  69.9991 228.5242 0002781 246.1232 113.9636 14.98317218 56065,6950.232,96.108,574.03,570.165,0.0
55412.0,STARLINK-5033,PAYLOAD,2024-01-28 19:16:22,14.98318709,0.0002474,70.0022,228.0233,224.2825,135.8136,-1.5559e-05,-2.78e-06,0.0,0 STARLINK-5033,1 55412U 23014X   24028.80303732 -.00000278  00000-0 -15559-4 0  9997,2 55412  70.0022 228.0233 0002474 224.2825 135.8136 14.98318709 55155,6950.228,96.108,573.812,570.373,0.0
55412.0,STARLINK-5033,PAYLOAD,2024-01-28 22:28:38,14.98319804,0.0002431,70.0017,227.6864,231.0977,128.9965,-1.245e-05,-2.41e-06,0.0,0 STARLINK-5033,1 55412U 23014X   24028.93655732 -.00000241  00000-0 -12450-4 0  9998,2 55412  70.0017 227.6864 0002431 231.0977 128.9965 14.98319804 56118,6950.224,96.108,573.779,570.4,0.0
55412.0,STARLINK-5033,PAYLOAD,2024-01-29 12:53:50,14.98326771,0.0002872,70.0005,226.1712,257.863,102.2207,0.00021267,2.445e-05,0.0,0 STARLINK-5033,1 55412U 23014X   24029.53738586  .00002445  00000-0  21267-3 0  9995,2 55412  70.0005 226.1712 0002872 257.8630 102.2207 14.98326771 55262,6950.203,96.107,574.064,570.072,0.0
55412.0,STARLINK-5033,PAYLOAD,2024-01-30 14:31:59,14.98340403,0.0003177,69.9989,223.4738,259.9958,100.0843,5.9473e-05,6.17e-06,0.0,0 STARLINK-5033,1 55412U 23014X   24030.60554575  .00000617  00000-0  59473-4 0  9999,2 55412  69.9989 223.4738 0003177 259.9958 100.0843 14.98340403 56365,6950.161,96.106,574.234,569.818,0.0
55412.0,STARLINK-5033,PAYLOAD,2024-01-30 19:20:23,14.98341797,0.0003138,69.9991,222.9692,259.4067,100.6739,7.4756e-05,7.99e-06,0.0,0 STARLINK-5033,1 55412U 23014X   24030.80582294  .00000799  00000-0  74756-4 0  9992,2 55412  69.9991 222.9692 0003138 259.4067 100.6739 14.98341797 55450,6950.156,96.106,574.202,569.84,0.0
55412.0,STARLINK-5033,PAYLOAD,2024-01-30 22:32:39,14.98342493,0.0003132,69.9991,222.6325,259.4148,100.6658,7.9176e-05,8.52e-06,0.0,0 STARLINK-5033,1 55412U 23014X   24030.93934124  .00000852  00000-0  79176-4 0  9990,2 55412  69.9991 222.6325 0003132 259.4148 100.6658 14.98342493 56415,6950.154,96.106,574.196,569.842,0.0
55412.0,STARLINK-5033,PAYLOAD,2024-01-31 22:34:39,14.98344051,0.0002915,69.9996,220.1072,257.5002,102.5831,1.6218e-05,1.01e-06,0.0,0 STARLINK-5033,1 55412U 23014X   24031.94073337  .00000101  00000-0  16218-4 0  9997,2 55412  69.9996 220.1072 0002915 257.5002 102.5831 14.98344051 56560,6950.149,96.106,574.04,569.988,0.0
55412.0,STARLINK-5033,PAYLOAD,2024-02-01 11:23:43,14.98338776,0.0002795,70.0,218.7616,251.1073,108.9783,-5.3942e-05,-7.37e-06,0.0,0 STARLINK-5033,1 55412U 23014X   24032.47481445 -.00000737  00000-0 -53942-4 0  9991,2 55412  70.0000 218.7616 0002795 251.1073 108.9783 14.98338776 56642,6950.166,96.106,573.973,570.088,0.0
55412.0,STARLINK-5033,PAYLOAD,2024-02-02 14:38:01,14.98329287,0.0002991,69.9993,215.8996,259.5807,100.5015,1.21e-05,5.1e-07,0.0,0 STARLINK-5033,1 55412U 23014X   24033.60974050  .00000051  00000-0  12100-4 0  9994,2 55412  69.9993 215.8996 0002991 259.5807 100.5015 14.98329287 56816,6950.195,96.107,574.139,569.981,0.0
55412.0,STARLINK-5033,PAYLOAD,2024-02-02 19:26:25,14.9833002,0.0002936,69.9994,215.3934,263.3867,96.6957,-7.0917e-06,-1.78e-06,0.0,0 STARLINK-5033,1 55412U 23014X   24033.81001346 -.00000178  00000-0 -70917-5 0  9999,2 55412  69.9994 215.3934 0002936 263.3867  96.6957 14.98330020 55908,6950.193,96.107,574.098,570.017,0.0
55412.0,STARLINK-5033,PAYLOAD,2024-02-02 21:02:33,14.98331144,0.00029,69.9994,215.2252,263.654,96.4289,1.5612e-06,-7.4e-07,0.0,0 STARLINK-5033,1 55412U 23014X   24033.87677253 -.00000074  00000-0  15612-5 0  9996,2 55412  69.9994 215.2252 0002900 263.6540  96.4289 14.98331144 56851,6950.189,96.107,574.07,570.039,0.0
55412.0,STARLINK-5033,PAYLOAD,2024-02-03 13:03:53,14.98329768,0.0002856,69.9996,213.5427,260.5392,99.5444,3.1007e-05,2.77e-06,0.0,0 STARLINK-5033,1 55412U 23014X   24034.54437167  .00000277  00000-0  31007-4 0  9998,2 55412  69.9996 213.5427 0002856 260.5392  99.5444 14.98329768 56956,6950.194,96.107,574.044,570.074,0.0
55412.0,STARLINK-5033,PAYLOAD,2024-02-03 19:28:26,14.98328795,0.0002902,69.9996,212.8695,260.0729,100.0102,2.0805e-05,1.55e-06,0.0,0 STARLINK-5033,1 55412U 23014X   24034.81141255  .00000155  00000-0  20805-4 0  9997,2 55412  69.9996 212.8695 0002902 260.0729 100.0102 14.98328795 56055,6950.197,96.107,574.079,570.045,0.0
55412.0,STARLINK-5033,PAYLOAD,2024-02-03 21:04:34,14.98329059,0.0002899,69.9997,212.7013,260.2428,99.8404,2.3114e-05,1.83e-06,0.0,0 STARLINK-5033,1 55412U 23014X   24034.87817232  .00000183  00000-0  23114-4 0  9995,2 55412  69.9997 212.7013 0002899 260.2428  99.8404 14.98329059 57002,6950.196,96.107,574.076,570.046,0.0
55412.0,STARLINK-5033,PAYLOAD,2024-02-04 14:42:02,14.98331286,0.000293,69.9996,210.8498,260.3778,99.705,-1.6594e-06,-1.13e-06,0.0,0 STARLINK-5033,1 55412U 23014X   24035.61253127 -.00000113  00000-0 -16594-5 0  9995,2 55412  69.9996 210.8498 0002930 260.3778  99.7050 14.98331286 57115,6950.189,96.107,574.09,570.018,0.0
55412.0,STARLINK-5033,PAYLOAD,2024-02-04 19:30:26,14.98331152,0.0002931,69.9998,210.345,260.2573,99.8255,-2.3158e-06,-1.21e-06,0.0,0 STARLINK-5033,1 55412U 23014X   24035.81281116 -.00000121  00000-0 -23158-5 0  9999,2 55412  69.9998 210.3450 0002931 260.2573  99.8255 14.98331152 56202,6950.189,96.107,574.091,570.017,0.0
